STARLINK-4034           
1 52700U 22053AW  26196.52946309  .00000745  00000+0  64881-4 0  9994
2 52700  53.1608 294.6051 0001243  78.7015 281.4116 15.08832338230395
STARLINK-4033           
1 52702U 22053AY  26196.49270818 -.00000484  00000+0 -12350-4 0  9993
2 52702  53.1618 295.1594 0001173  90.5209 269.5917 15.08831200230387
STARLINK-4020           
1 52703U 22053AZ  26197.16668980  .00072167  00000+0  30593-2 0  9992
2 52703  53.1597 276.0291 0001563  96.6136  28.2391 15.22497005  5838
STARLINK-3999           
1 52704U 22053BA  26197.16668980  .00070568  00000+0  34155-2 0  9994
2 52704  53.1587 276.5661 0002172 124.0883 356.6771 15.17950517  5731
STARLINK-3844           
1 52705U 22053BB  26197.16668980  .00071206  00000+0  26164-2 0  9996
2 52705  53.1600 275.9508 0001583  77.4530  61.1571 15.27287726  5783
STARLINK-3970           
1 52706U 22053BC  26197.16668980  .00071696  00000+0  29373-2 0  9995
2 52706  53.1597 276.0003 0000833 305.8993 146.8760 15.23655092  5837
STARLINK-4007           
1 52707U 22053BD  26197.21841530  .00017320  00000+0  10225-2 0  9996
2 52707  53.2152 276.1798 0001051  14.0882 346.0140 15.11626909230790
STARLINK-3962           
1 52708U 22053BE  26197.16668980  .00081155  00000+0  33825-2 0  9995
2 52708  53.1603 275.9460 0001032  53.5030 300.3960 15.23013014  5788
STARLINK-4091           
1 52830U 22062A   26197.16668980  .00007785  00000+0  38242-3 0  9997
2 52830  53.1603 177.0753 0002552  77.4783  87.2417 15.18973510  5686
STARLINK-4089           
1 52831U 22062B   26197.16668980  .00013368  00000+0  68556-3 0  9993
2 52831  53.1608 176.9613 0001557  69.5302  94.3424 15.16858007  5833
STARLINK-4083           
1 52832U 22062C   26197.16668980  .00014422  00000+0  74711-3 0  9996
2 52832  53.1597 176.9778 0001770  66.3232 108.5789 15.16437346  5838
STARLINK-4086           
1 52833U 22062D   26197.16668980  .00014365  00000+0  74928-3 0  9993
2 52833  53.1593 176.9855 0001930  70.4054 120.6909 15.16197695  5780
STARLINK-4108           
1 52834U 22062E   26197.16668980  .00016599  00000+0  83550-3 0  9996
2 52834  53.1589 176.9476 0001928  75.6606 176.1380 15.17342249  5789
STARLINK-4080           
1 52835U 22062F   26197.16668980  .00016391  00000+0  82866-3 0  9996
2 52835  53.1598 176.9508 0001757  87.5250 183.0554 15.17198364  5836
STARLINK-4043           
1 52836U 22062G   26197.16668980 -.00917630  00000+0 -20473-1 0  9999
2 52836  53.2201 156.4210 0001766  69.8169  71.1369 15.45519854  5703
STARLINK-4036           
1 52837U 22062H   26197.16668980  .00015703  00000+0  85685-3 0  9996
2 52837  53.1602 177.0246 0001653 111.7094 180.3952 15.14526247  5830
STARLINK-4092           
1 52838U 22062J   26197.16668980  .00015739  00000+0  81829-3 0  9992
2 52838  53.1603 176.9709 0001543 111.5756 183.1819 15.16240860  5733
STARLINK-4048           
1 52839U 22062K   26197.16668980  .00012953  00000+0  66055-3 0  9992
2 52839  53.1612 176.9574 0000965 124.4164 242.5690 15.17083111  5830
STARLINK-4049           
1 52840U 22062L   26197.16668980 -.00293275  00000+0 -47032-2 0  9997
2 52840  53.2154 152.2111 0000961  67.1736  71.2091 15.53496099  5994
STARLINK-4065           
1 52841U 22062M   26197.16668980  .00013396  00000+0  64586-3 0  9994
2 52841  53.1607 176.8602 0001357  85.5594  31.0585 15.19020756  5728
STARLINK-4046           
1 52842U 22062N   26197.16668980  .00013499  00000+0  69594-3 0  9993
2 52842  53.1616 176.8793 0001036  98.2537 249.1798 15.16664400  5682
STARLINK-4188           
1 52843U 22062P   26197.16668980  .00011168  00000+0  58901-3 0  9995
2 52843  53.1603 176.9932 0000784  62.3816  25.8882 15.16035414  5732
STARLINK-4208           
1 52844U 22062Q   26197.16668980  .00014836  00000+0  63271-3 0  9997
2 52844  53.1592 176.5856 0001841 101.3802 117.6378 15.23156437  5833
STARLINK-4168           
1 52845U 22062R   26197.16668980  .00010285  00000+0  52810-3 0  9999
2 52845  53.1612 177.0276 0000539 111.3075 334.8001 15.17070072  5744
STARLINK-4212           
1 52846U 22062S   26197.16668980  .00010466  00000+0  58007-3 0  9995
2 52846  53.1606 177.0480 0000619 134.2779 264.7466 15.14330937  5796
STARLINK-4206           
1 52847U 22062T   26197.15280682 -.00000652  00000+0 -22859-4 0  9999
2 52847  53.1604 177.1547 0001103  88.9654 271.1464 15.08833982225184
STARLINK-4202           
1 52848U 22062U   26197.10496631 -.00000389  00000+0 -63329-5 0  9993
2 52848  53.1607 177.3711 0001274  74.4682 285.6450 15.08833110225170
STARLINK-4197           
1 52849U 22062V   26197.16668980  .00017841  00000+0  84306-3 0  9993
2 52849  53.1611 166.8383 0002036 121.1709 123.4998 15.19494610  5836
STARLINK-4187           
1 52850U 22062W   26197.16668980  .00007562  00000+0  36487-3 0  9991
2 52850  53.1607 177.2094 0000111 298.9772  57.3137 15.19642502  5838
STARLINK-3809           
1 52851U 22062X   26197.16751911  .00000362  00000+0  21302-4 0  9991
2 52851  53.1606 163.8559 0001413  76.8966 283.2194 15.35398256225366
