OBJECT_NAME,OBJECT_ID,EPOCH,MEAN_MOTION,ECCENTRICITY,INCLINATION,RA_OF_ASC_NODE,ARG_OF_PERICENTER,MEAN_ANOMALY,EPHEMERIS_TYPE,CLASSIFICATION_TYPE,NORAD_CAT_ID,ELEMENT_SET_NO,REV_AT_EPOCH,BSTAR,MEAN_MOTION_DOT,MEAN_MOTION_DDOT
STARLINK-4034,2022-053AW,2026-07-15T12:42:25.610976,15.08832338,.00012437,53.1608,294.6051,78.7015,281.4116,0,U,52700,999,23039,.64880785E-4,.745E-5,0
STARLINK-4033,2022-053AY,2026-07-15T11:49:29.986752,15.08831200,.00011734,53.1618,295.1594,90.5209,269.5917,0,U,52702,999,23038,-.12349984E-4,-.484E-5,0
STARLINK-4020,2022-053AZ,2026-07-16T04:00:01.998720,15.22497005,.0001563,53.1597,276.0291,96.6136,28.2391,0,U,52703,999,583,.30593E-2,.72167E-3,0
STARLINK-3999,2022-053BA,2026-07-16T04:00:01.998720,15.17950517,.0002172,53.1587,276.5661,124.0883,356.6771,0,U,52704,999,573,.34155E-2,.70568E-3,0
STARLINK-3844,2022-053BB,2026-07-16T04:00:01.998720,15.27287726,.0001583,53.1600,275.9508,77.4530,61.1571,0,U,52705,999,578,.26164E-2,.71206E-3,0
STARLINK-3970,2022-053BC,2026-07-16T04:00:01.998720,15.23655092,.0000833,53.1597,276.0003,305.8993,146.8760,0,U,52706,999,583,.29373E-2,.71696E-3,0
STARLINK-4007,2022-053BD,2026-07-16T05:14:31.081920,15.11626909,.0001051,53.2152,276.1798,14.0882,346.0140,0,U,52707,999,23079,.10225E-2,.1732E-3,0
STARLINK-3962,2022-053BE,2026-07-16T04:00:01.998720,15.23013014,.0001032,53.1603,275.9460,53.5030,300.3960,0,U,52708,999,578,.33825E-2,.81155E-3,0
STARLINK-4091,2022-062A,2026-07-16T04:00:01.998720,15.18973510,.0002552,53.1603,177.0753,77.4783,87.2417,0,U,52830,999,568,.38242E-3,.7785E-4,0
STARLINK-4089,2022-062B,2026-07-16T04:00:01.998720,15.16858007,.0001557,53.1608,176.9613,69.5302,94.3424,0,U,52831,999,583,.68556E-3,.13368E-3,0
STARLINK-4083,2022-062C,2026-07-16T04:00:01.998720,15.16437346,.000177,53.1597,176.9778,66.3232,108.5789,0,U,52832,999,583,.74711E-3,.14422E-3,0
STARLINK-4086,2022-062D,2026-07-16T04:00:01.998720,15.16197695,.000193,53.1593,176.9855,70.4054,120.6909,0,U,52833,999,578,.74928E-3,.14365E-3,0
STARLINK-4108,2022-062E,2026-07-16T04:00:01.998720,15.17342249,.0001928,53.1589,176.9476,75.6606,176.1380,0,U,52834,999,578,.8355E-3,.16599E-3,0
STARLINK-4080,2022-062F,2026-07-16T04:00:01.998720,15.17198364,.0001757,53.1598,176.9508,87.5250,183.0554,0,U,52835,999,583,.82866E-3,.16391E-3,0
STARLINK-4043,2022-062G,2026-07-16T04:00:01.998720,15.45519854,.0001766,53.2201,156.4210,69.8169,71.1369,0,U,52836,999,570,-.20473E-1,-.91763E-2,0
STARLINK-4036,2022-062H,2026-07-16T04:00:01.998720,15.14526247,.0001653,53.1602,177.0246,111.7094,180.3952,0,U,52837,999,583,.85685E-3,.15703E-3,0
STARLINK-4092,2022-062J,2026-07-16T04:00:01.998720,15.16240860,.0001543,53.1603,176.9709,111.5756,183.1819,0,U,52838,999,573,.81829E-3,.15739E-3,0
STARLINK-4048,2022-062K,2026-07-16T04:00:01.998720,15.17083111,.0000965,53.1612,176.9574,124.4164,242.5690,0,U,52839,999,583,.66055E-3,.12953E-3,0
STARLINK-4049,2022-062L,2026-07-16T04:00:01.998720,15.53496099,.0000961,53.2154,152.2111,67.1736,71.2091,0,U,52840,999,599,-.47032E-2,-.293275E-2,0
STARLINK-4065,2022-062M,2026-07-16T04:00:01.998720,15.19020756,.0001357,53.1607,176.8602,85.5594,31.0585,0,U,52841,999,572,.64586E-3,.13396E-3,0
STARLINK-4046,2022-062N,2026-07-16T04:00:01.998720,15.16664400,.0001036,53.1616,176.8793,98.2537,249.1798,0,U,52842,999,568,.69594E-3,.13499E-3,0
STARLINK-4188,2022-062P,2026-07-16T04:00:01.998720,15.16035414,.0000784,53.1603,176.9932,62.3816,25.8882,0,U,52843,999,573,.58901E-3,.11168E-3,0
STARLINK-4208,2022-062Q,2026-07-16T04:00:01.998720,15.23156437,.0001841,53.1592,176.5856,101.3802,117.6378,0,U,52844,999,583,.63271E-3,.14836E-3,0
STARLINK-4168,2022-062R,2026-07-16T04:00:01.998720,15.17070072,.0000539,53.1612,177.0276,111.3075,334.8001,0,U,52845,999,574,.5281E-3,.10285E-3,0
STARLINK-4212,2022-062S,2026-07-16T04:00:01.998720,15.14330937,.0000619,53.1606,177.0480,134.2779,264.7466,0,U,52846,999,579,.58007E-3,.10466E-3,0
STARLINK-4206,2022-062T,2026-07-16T03:40:02.509248,15.08833982,.0001103,53.1604,177.1547,88.9654,271.1464,0,U,52847,999,22518,-.22859E-4,-.652E-5,0
STARLINK-4202,2022-062U,2026-07-16T02:31:09.089184,15.08833110,.0001274,53.1607,177.3711,74.4682,285.6450,0,U,52848,999,22517,-.63329E-5,-.389E-5,0
STARLINK-4197,2022-062V,2026-07-16T04:00:01.998720,15.19494610,.0002036,53.1611,166.8383,121.1709,123.4998,0,U,52849,999,583,.84306E-3,.17841E-3,0
STARLINK-4187,2022-062W,2026-07-16T04:00:01.998720,15.19642502,.0000111,53.1607,177.2094,298.9772,57.3137,0,U,52850,999,583,.36487E-3,.7562E-4,0
STARLINK-3809,2022-062X,2026-07-16T04:01:13.651104,15.35398256,.0001413,53.1606,163.8559,76.8966,283.2194,0,U,52851,999,22536,.21302E-4,.362E-5,0
